      2.10          N: GNSS NAV DATA                        RINEX VERSION / TYPE
fic2rin                                 07/12/2018 00:08:07 PGM / RUN BY / DATE
                                                            END OF HEADER
 4 18  7 11 10  0  0.0 7.790001109242e-05 3.637978807092e-12 0.000000000000e+00
    7.700000000000e+01 1.322500000000e+02 5.673807765439e-09 4.822677449816e-01
    7.061287760735e-06 9.794730809517e-03 3.796070814133e-06 5.153715017319e+03
    2.952000000000e+05-4.842877388000e-08 7.114517433465e-01 4.284083843231e-08
    9.787593049337e-01 3.129687500000e+02 9.347295215679e-01-8.436065681712e-09
    1.921508609975e-10 1.000000000000e+00 2.009000000000e+03 0.000000000000e+00
    2.400000000000e+00 6.300000000000e+01-1.955777406693e-08 7.700000000000e+01
    2.880060000000e+05 4.000000000000e+00
20 18  7 11 10  0  0.0 5.121841095388e-04 6.821210263297e-13 0.000000000000e+00
    8.000000000000e+00 1.818750000000e+01 5.290220358912e-09-3.021483871103e+00
    9.536743164062e-07 3.984872717410e-03 8.201226592064e-06 5.153663103104e+03
    2.952000000000e+05 4.470348358154e-08-2.568773895835e+00 4.470348358154e-08
    9.287526805171e-01 1.998750000000e+02 2.045829742918e+00-8.239986085638e-09
    7.503883995460e-10 1.000000000000e+00 2.009000000000e+03 0.000000000000e+00
    2.400000000000e+00 0.000000000000e+00-8.381903171539e-09 8.000000000000e+00
    2.880060000000e+05 4.000000000000e+00
14 18  7 11 10  0  0.0-9.760819375515e-05 0.000000000000e+00 0.000000000000e+00
    7.100000000000e+01-2.328125000000e+01 4.996636701403e-09-1.059379523615e+00
   -9.406358003616e-07 1.004691747949e-02 6.951391696930e-06 5.153592224121e+03
    2.952000000000e+05 1.117587089539e-08-1.333723810402e+00 1.974403858185e-07
    9.604613874606e-01 2.463437500000e+02-1.947460812543e+00-8.192841264724e-09
   -4.118028675281e-10 1.000000000000e+00 2.009000000000e+03 0.000000000000e+00
    2.400000000000e+00 0.000000000000e+00-9.778887033463e-09 7.100000000000e+01
    2.880060000000e+05 4.000000000000e+00
13 18  7 11 10  0  0.0-9.256647899747e-05 4.547473508865e-13 0.000000000000e+00
    6.500000000000e+01-2.312500000000e+01 4.664480008601e-09-2.044114992269e+00
   -1.160427927971e-06 3.295604488812e-03 7.443130016327e-06 5.153654855728e+03
    2.952000000000e+05 6.519258022308e-08-1.291508201986e+00 6.146728992462e-08
    9.679271777550e-01 2.377812500000e+02 1.538181481079e+00-7.912472443380e-09
   -4.539474801632e-10 1.000000000000e+00 2.009000000000e+03 0.000000000000e+00
    2.400000000000e+00 0.000000000000e+00-1.117587089539e-08 6.500000000000e+01
    2.880060000000e+05 4.000000000000e+00
23 18  7 11 10  0  0.0-2.146582119167e-04 5.684341886081e-13 0.000000000000e+00
    6.500000000000e+01-3.400000000000e+01 5.335579391155e-09-2.085206956714e+00
   -2.063810825348e-06 1.265091076493e-02 5.556270480156e-06 5.153759717941e+03
    2.952000000000e+05 1.695007085800e-07-1.425991812088e+00-7.078051567078e-08
    9.430007257996e-01 2.580000000000e+02-2.343885390680e+00-8.269630177576e-09
   -1.692927660089e-10 1.000000000000e+00 2.009000000000e+03 0.000000000000e+00
    2.400000000000e+00 0.000000000000e+00-2.002343535423e-08 6.500000000000e+01
    2.880060000000e+05 4.000000000000e+00
19 18  7 11 10  0  0.0-4.213396459818e-04 3.183231456205e-12 0.000000000000e+00
    4.500000000000e+01-1.183437500000e+02 4.159458972448e-09 2.077162548672e+00
   -6.586313247681e-06 9.884814964607e-03 2.518296241760e-06 5.153721338272e+03
    2.952000000000e+05 3.166496753693e-08 1.827947048577e+00-1.806765794754e-07
    9.802765045883e-01 3.416562500000e+02 1.228708179028e+00-8.079265105250e-09
   -4.714482091388e-10 1.000000000000e+00 2.009000000000e+03 0.000000000000e+00
    2.400000000000e+00 0.000000000000e+00-1.536682248116e-08 4.500000000000e+01
    2.880060000000e+05 4.000000000000e+00
22 18  7 11 10  0  0.0-4.541571252048e-04-1.205080479849e-11 0.000000000000e+00
    1.010000000000e+02 2.956250000000e+01 5.353080120131e-09-1.451247591773e+00
    1.780688762665e-06 7.292062975466e-03 8.206814527512e-06 5.153765951157e+03
    2.952000000000e+05-2.607703208923e-08-2.519046573201e+00 1.378357410431e-07
    9.254448193942e-01 2.030312500000e+02-1.510143646676e+00-8.404992958836e-09
    7.553886078247e-10 1.000000000000e+00 2.009000000000e+03 0.000000000000e+00
    2.400000000000e+00 0.000000000000e+00-1.769512891769e-08 1.010000000000e+02
    2.880060000000e+05 4.000000000000e+00
11 18  7 11 10  0  0.0-7.305596955121e-04 1.705302565824e-12 0.000000000000e+00
    8.200000000000e+01-1.622500000000e+02 5.355580224270e-09 2.702260088391e+00
   -8.195638656616e-06 1.697223633528e-02 6.575137376785e-06 5.153648578644e+03
    2.952000000000e+05 1.844018697739e-07 2.353256941912e+00 3.911554813385e-08
    9.060068425473e-01 2.229375000000e+02 1.779530003150e+00-8.222128198928e-09
   -2.917978688382e-10 1.000000000000e+00 2.009000000000e+03 0.000000000000e+00
    2.400000000000e+00 0.000000000000e+00-1.210719347000e-08 8.200000000000e+01
    2.880060000000e+05 4.000000000000e+00
16 18  7 11 10  0  0.0 1.819990575314e-05-1.477928890381e-12 0.000000000000e+00
    6.200000000000e+01 1.208125000000e+02 4.241605251313e-09 2.184952210658e-01
    6.414949893951e-06 9.964025928639e-03 3.144145011902e-06 5.153662567139e+03
    2.952000000000e+05-1.117587089539e-08 7.655322405877e-01 6.519258022308e-08
    9.867071750115e-01 3.278437500000e+02 5.236432931707e-01-8.323918153174e-09
    1.646497154644e-10 1.000000000000e+00 2.009000000000e+03 0.000000000000e+00
    2.400000000000e+00 0.000000000000e+00-1.071020960808e-08 6.200000000000e+01
    2.880060000000e+05 4.000000000000e+00
18 18  7 11 10  0  0.0 3.225775435567e-05 4.661160346586e-12 0.000000000000e+00
    6.400000000000e+01-1.310000000000e+02 4.186245802512e-09 3.114564697870e+00
   -6.634742021561e-06 1.478664821479e-02 1.070275902748e-05 5.153649501801e+03
    2.952000000000e+05 1.322478055954e-07 2.734973018376e+00-6.705522537231e-08
    9.505467878720e-01 1.661875000000e+02 1.319930380078e+00-7.556029024652e-09
    8.678932940965e-11 1.000000000000e+00 2.009000000000e+03 0.000000000000e+00
    2.400000000000e+00 0.000000000000e+00-6.984919309616e-09 6.400000000000e+01
    2.880060000000e+05 4.000000000000e+00
15 18  7 11 10  0  0.0-3.509838134050e-04 7.958078640513e-13 0.000000000000e+00
    1.760000000000e+02-2.237500000000e+01 5.704166172846e-09-1.618939964536e+00
   -1.318752765656e-06 1.035393530037e-02 5.345791578293e-06 5.153761676788e+03
    2.952000000000e+05 1.527369022369e-07-1.495836857918e+00-8.195638656616e-08
    9.277061162378e-01 2.509375000000e+02 6.859452282806e-01-8.455709357092e-09
   -1.939366496685e-10 1.000000000000e+00 2.009000000000e+03 0.000000000000e+00
    3.400000000000e+00 0.000000000000e+00-1.117587089539e-08 1.760000000000e+02
    2.880060000000e+05 4.000000000000e+00
21 18  7 11 10  0  0.0-3.691506572068e-04 5.456968210638e-12 0.000000000000e+00
    9.600000000000e+01-1.358750000000e+02 4.385182660460e-09 1.574329088166e+00
   -7.407739758492e-06 2.432716253679e-02 1.139752566814e-05 5.153683109283e+03
    2.952000000000e+05 9.685754776001e-08 2.727613691944e+00-6.165355443954e-07
    9.447962953580e-01 1.530312500000e+02-1.544921722522e+00-7.942473693053e-09
    1.292910997790e-10 1.000000000000e+00 2.009000000000e+03 0.000000000000e+00
    3.400000000000e+00 0.000000000000e+00-1.024454832077e-08 9.600000000000e+01
    2.880060000000e+05 4.000000000000e+00
31 18  7 11 10  0  0.0 1.085209660232e-04-2.614797267597e-12 0.000000000000e+00
    7.300000000000e+01 8.415625000000e+01 4.265891977238e-09 2.513698211997e+00
    4.483386874199e-06 8.761749486439e-03 1.325458288193e-05 5.153703430176e+03
    2.952000000000e+05-1.713633537292e-07-3.337051078372e-01 1.564621925354e-07
    9.630953875544e-01 1.244375000000e+02-1.238983371831e-01-7.683177178026e-09
   -3.396570052205e-10 1.000000000000e+00 2.009000000000e+03 0.000000000000e+00
    2.400000000000e+00 0.000000000000e+00-1.350417733192e-08 7.300000000000e+01
    2.880060000000e+05 4.000000000000e+00
29 18  7 11 10  0  0.0 4.168278537691e-04-6.934897101019e-12 0.000000000000e+00
    8.400000000000e+01-1.125312500000e+02 4.167316442600e-09 6.355089784713e-02
   -5.828216671944e-06 8.375976467505e-04 2.415850758553e-06 5.153667591095e+03
    2.952000000000e+05-3.911554813385e-08 1.791695046193e+00 7.078051567078e-08
    9.840073260491e-01 3.443125000000e+02 1.357639048030e+00-8.217485148383e-09
   -4.303750697063e-10 1.000000000000e+00 2.009000000000e+03 0.000000000000e+00
    3.400000000000e+00 0.000000000000e+00-1.024454832077e-08 8.400000000000e+01
    2.880060000000e+05 4.000000000000e+00
28 18  7 11 10  0  0.0 7.303687743843e-04 2.728484105319e-12 0.000000000000e+00
    5.700000000000e+01 1.059687500000e+02 4.242676724515e-09 1.661784983215e-01
    5.694106221199e-06 1.947292685509e-02 3.676861524582e-06 5.153687309265e+03
    2.952000000000e+05-2.086162567139e-07 7.697413762808e-01-2.235174179077e-08
    9.855846399334e-01 3.247812500000e+02-1.517898168723e+00-8.536069847286e-09
    1.607209803882e-10 1.000000000000e+00 2.009000000000e+03 0.000000000000e+00
    4.850000000000e+00 0.000000000000e+00-1.117587089539e-08 5.700000000000e+01
    2.880060000000e+05 4.000000000000e+00
 1 18  7 11  9 59 44.0-6.465893238783e-05-3.751665644813e-12 0.000000000000e+00
    7.000000000000e+00-1.136250000000e+02 3.725512325399e-09-2.920115436403e+00
   -5.858018994331e-06 8.000773144886e-03 1.151859760284e-05 5.153676551819e+03
    2.951840000000e+05 5.587935447693e-08 2.783076820858e+00-5.215406417847e-08
    9.721761413928e-01 1.637500000000e+02 6.576589977027e-01-7.498883787181e-09
    1.925080187317e-10 1.000000000000e+00 2.009000000000e+03 0.000000000000e+00
    2.400000000000e+00 0.000000000000e+00 5.587935447693e-09 7.000000000000e+00
    2.880360000000e+05 4.000000000000e+00
